[
    {
        "CCSDS_OMM_VERS": "3.0",
        "COMMENT": "GENERATED VIA SPACE-TRACK.ORG API",
        "CREATION_DATE": "2025-04-14T03:05:54",
        "ORIGINATOR": "18 SPCS",
        "OBJECT_NAME": "BD-20",
        "OBJECT_ID": "2015-053A",
        "CENTER_NAME": "EARTH",
        "REF_FRAME": "TEME",
        "TIME_SYSTEM": "UTC",
        "MEAN_ELEMENT_THEORY": "SGP4",
        "EPOCH": "2025-04-13T21:01:12.345312",
        "MEAN_MOTION": "1.00282678",
        "ECCENTRICITY": "0.00570460",
        "INCLINATION": "49.8899",
        "RA_OF_ASC_NODE": "263.8712",
        "ARG_OF_PERICENTER": "186.5468",
        "MEAN_ANOMALY": "162.8972",
        "EPHEMERIS_TYPE": "0",
        "CLASSIFICATION_TYPE": "U",
        "NORAD_CAT_ID": "40938",
        "ELEMENT_SET_NO": "999",
        "REV_AT_EPOCH": "3504",
        "BSTAR": "0.00000000000000",
        "MEAN_MOTION_DOT": "-0.00000146",
        "MEAN_MOTION_DDOT": "0.0000000000000",
        "SEMIMAJOR_AXIS": "42161.679",
        "PERIOD": "1435.941",
        "APOAPSIS": "36024.059",
        "PERIAPSIS": "35543.028",
        "OBJECT_TYPE": "PAYLOAD",
        "RCS_SIZE": "LARGE",
        "COUNTRY_CODE": "PRC",
        "LAUNCH_DATE": "2015-09-29",
        "SITE": "XSC",
        "DECAY_DATE": null,
        "FILE": "4701263",
        "GP_ID": "285537164",
        "TLE_LINE0": "0 BD-20",
        "TLE_LINE1": "1 40938U 15053A   25103.87583733 -.00000146  00000-0  00000-0 0  9995",
        "TLE_LINE2": "2 40938  49.8899 263.8712 0057046 186.5468 162.8972  1.00282678 35043"
    }
]